[{"OBJECT_NAME":"ONEWEB-0422","OBJECT_ID":"2022-012E","EPOCH":"2025-12-17T05:00:07.127712","MEAN_MOTION":13.17648671,"ECCENTRICITY":0.00022358,"INCLINATION":87.9117,"RA_OF_ASC_NODE":42.0309,"ARG_OF_PERICENTER":84.6213,"MEAN_ANOMALY":275.5174,"EPHEMERIS_TYPE":0,"CLASSIFICATION_TYPE":"U","NORAD_CAT_ID":51626,"ELEMENT_SET_NO":999,"REV_AT_EPOCH":18984,"BSTAR":0.00018022683,"MEAN_MOTION_DOT":8.3e-7,"MEAN_MOTION_DDOT":0},{"OBJECT_NAME":"ONEWEB-0423","OBJECT_ID":"2022-012F","EPOCH":"2025-12-17T04:50:23.499168","MEAN_MOTION":13.17648222,"ECCENTRICITY":0.00019223,"INCLINATION":87.9118,"RA_OF_ASC_NODE":42.0422,"ARG_OF_PERICENTER":99.6436,"MEAN_ANOMALY":260.4912,"EPHEMERIS_TYPE":0,"CLASSIFICATION_TYPE":"U","NORAD_CAT_ID":51627,"ELEMENT_SET_NO":999,"REV_AT_EPOCH":18973,"BSTAR":0.00010439653,"MEAN_MOTION_DOT":5.3e-7,"MEAN_MOTION_DDOT":0},{"OBJECT_NAME":"ONEWEB-0425","OBJECT_ID":"2022-012G","EPOCH":"2025-12-17T07:12:36.670752","MEAN_MOTION":13.10372595,"ECCENTRICITY":0.00018899,"INCLINATION":87.8812,"RA_OF_ASC_NODE":72.5209,"ARG_OF_PERICENTER":114.7086,"MEAN_ANOMALY":245.4238,"EPHEMERIS_TYPE":0,"CLASSIFICATION_TYPE":"U","NORAD_CAT_ID":51628,"ELEMENT_SET_NO":999,"REV_AT_EPOCH":18550,"BSTAR":0.00212056,"MEAN_MOTION_DOT":7.53e-6,"MEAN_MOTION_DDOT":0},{"OBJECT_NAME":"ONEWEB-0428","OBJECT_ID":"2022-012H","EPOCH":"2025-12-17T06:43:54.875136","MEAN_MOTION":13.10375186,"ECCENTRICITY":0.000173,"INCLINATION":87.8811,"RA_OF_ASC_NODE":72.5431,"ARG_OF_PERICENTER":102.5105,"MEAN_ANOMALY":257.6216,"EPHEMERIS_TYPE":0,"CLASSIFICATION_TYPE":"U","NORAD_CAT_ID":51629,"ELEMENT_SET_NO":999,"REV_AT_EPOCH":18546,"BSTAR":0.00035269546,"MEAN_MOTION_DOT":1.36e-6,"MEAN_MOTION_DDOT":0},{"OBJECT_NAME":"ONEWEB-0431","OBJECT_ID":"2022-012J","EPOCH":"2025-12-17T06:00:39.928896","MEAN_MOTION":13.103708,"ECCENTRICITY":0.00013273,"INCLINATION":87.8815,"RA_OF_ASC_NODE":72.5294,"ARG_OF_PERICENTER":83.6216,"MEAN_ANOMALY":276.5062,"EPHEMERIS_TYPE":0,"CLASSIFICATION_TYPE":"U","NORAD_CAT_ID":51630,"ELEMENT_SET_NO":999,"REV_AT_EPOCH":18551,"BSTAR":-0.0011489361,"MEAN_MOTION_DOT":-3.88e-6,"MEAN_MOTION_DDOT":0},{"OBJECT_NAME":"ONEWEB-0434","OBJECT_ID":"2022-012K","EPOCH":"2025-12-17T07:17:35.399616","MEAN_MOTION":13.10374307,"ECCENTRICITY":0.00021823,"INCLINATION":87.8804,"RA_OF_ASC_NODE":72.5541,"ARG_OF_PERICENTER":120.5973,"MEAN_ANOMALY":239.537,"EPHEMERIS_TYPE":0,"CLASSIFICATION_TYPE":"U","NORAD_CAT_ID":51631,"ELEMENT_SET_NO":999,"REV_AT_EPOCH":18550,"BSTAR":0.0018910513,"MEAN_MOTION_DOT":6.73e-6,"MEAN_MOTION_DDOT":0},{"OBJECT_NAME":"ONEWEB-0435","OBJECT_ID":"2022-012L","EPOCH":"2025-12-17T05:39:22.598208","MEAN_MOTION":13.10370136,"ECCENTRICITY":0.00019523,"INCLINATION":87.8804,"RA_OF_ASC_NODE":72.5579,"ARG_OF_PERICENTER":94.0476,"MEAN_ANOMALY":266.0874,"EPHEMERIS_TYPE":0,"CLASSIFICATION_TYPE":"U","NORAD_CAT_ID":51632,"ELEMENT_SET_NO":999,"REV_AT_EPOCH":18548,"BSTAR":0.00088710195,"MEAN_MOTION_DOT":3.22e-6,"MEAN_MOTION_DDOT":0},{"OBJECT_NAME":"ONEWEB-0436","OBJECT_ID":"2022-012M","EPOCH":"2025-12-17T04:38:14.421408","MEAN_MOTION":13.17647997,"ECCENTRICITY":0.00018282,"INCLINATION":87.9116,"RA_OF_ASC_NODE":42.0221,"ARG_OF_PERICENTER":92.1083,"MEAN_ANOMALY":268.0258,"EPHEMERIS_TYPE":0,"CLASSIFICATION_TYPE":"U","NORAD_CAT_ID":51633,"ELEMENT_SET_NO":999,"REV_AT_EPOCH":18971,"BSTAR":8.9268431e-5,"MEAN_MOTION_DOT":4.8e-7,"MEAN_MOTION_DDOT":0},{"OBJECT_NAME":"ONEWEB-0438","OBJECT_ID":"2022-012N","EPOCH":"2025-12-17T07:05:26.110176","MEAN_MOTION":13.10372654,"ECCENTRICITY":0.00018017,"INCLINATION":87.8807,"RA_OF_ASC_NODE":72.5468,"ARG_OF_PERICENTER":110.8652,"MEAN_ANOMALY":249.2668,"EPHEMERIS_TYPE":0,"CLASSIFICATION_TYPE":"U","NORAD_CAT_ID":51634,"ELEMENT_SET_NO":999,"REV_AT_EPOCH":18552,"BSTAR":0.0020577166,"MEAN_MOTION_DOT":7.31e-6,"MEAN_MOTION_DDOT":0},{"OBJECT_NAME":"ONEWEB-0439","OBJECT_ID":"2022-012P","EPOCH":"2025-12-17T07:10:13.019520","MEAN_MOTION":13.10373489,"ECCENTRICITY":0.00017847,"INCLINATION":87.8805,"RA_OF_ASC_NODE":72.5346,"ARG_OF_PERICENTER":103.7392,"MEAN_ANOMALY":256.3934,"EPHEMERIS_TYPE":0,"CLASSIFICATION_TYPE":"U","NORAD_CAT_ID":51635,"ELEMENT_SET_NO":999,"REV_AT_EPOCH":18550,"BSTAR":0.0019135888,"MEAN_MOTION_DOT":6.81e-6,"MEAN_MOTION_DDOT":0},{"OBJECT_NAME":"ONEWEB-0442","OBJECT_ID":"2022-012Q","EPOCH":"2025-12-17T04:27:16.763616","MEAN_MOTION":13.1765063,"ECCENTRICITY":0.00017758,"INCLINATION":87.9106,"RA_OF_ASC_NODE":42.0709,"ARG_OF_PERICENTER":119.9877,"MEAN_ANOMALY":240.1431,"EPHEMERIS_TYPE":0,"CLASSIFICATION_TYPE":"U","NORAD_CAT_ID":51636,"ELEMENT_SET_NO":999,"REV_AT_EPOCH":18970,"BSTAR":-0.00023006716,"MEAN_MOTION_DOT":-7.6e-7,"MEAN_MOTION_DDOT":0},{"OBJECT_NAME":"ONEWEB-0443","OBJECT_ID":"2022-012R","EPOCH":"2025-12-17T04:55:14.933280","MEAN_MOTION":13.17648395,"ECCENTRICITY":0.00020815,"INCLINATION":87.9103,"RA_OF_ASC_NODE":42.0719,"ARG_OF_PERICENTER":105.28,"MEAN_ANOMALY":254.8562,"EPHEMERIS_TYPE":0,"CLASSIFICATION_TYPE":"U","NORAD_CAT_ID":51637,"ELEMENT_SET_NO":999,"REV_AT_EPOCH":18975,"BSTAR":8.8415127e-5,"MEAN_MOTION_DOT":4.7e-7,"MEAN_MOTION_DDOT":0},{"OBJECT_NAME":"ONEWEB-0444","OBJECT_ID":"2022-012S","EPOCH":"2025-12-17T06:55:52.460832","MEAN_MOTION":13.10374143,"ECCENTRICITY":0.00017541,"INCLINATION":87.881,"RA_OF_ASC_NODE":72.5353,"ARG_OF_PERICENTER":102.9394,"MEAN_ANOMALY":257.193,"EPHEMERIS_TYPE":0,"CLASSIFICATION_TYPE":"U","NORAD_CAT_ID":51638,"ELEMENT_SET_NO":999,"REV_AT_EPOCH":18551,"BSTAR":0.0014764861,"MEAN_MOTION_DOT":5.28e-6,"MEAN_MOTION_DDOT":0},{"OBJECT_NAME":"ONEWEB-0445","OBJECT_ID":"2022-012T","EPOCH":"2025-12-17T05:36:59.158656","MEAN_MOTION":13.10370294,"ECCENTRICITY":0.00015621,"INCLINATION":87.8822,"RA_OF_ASC_NODE":72.5143,"ARG_OF_PERICENTER":108.3985,"MEAN_ANOMALY":251.7312,"EPHEMERIS_TYPE":0,"CLASSIFICATION_TYPE":"U","NORAD_CAT_ID":51639,"ELEMENT_SET_NO":999,"REV_AT_EPOCH":18551,"BSTAR":0.0011892555,"MEAN_MOTION_DOT":4.28e-6,"MEAN_MOTION_DDOT":0},{"OBJECT_NAME":"ONEWEB-0446","OBJECT_ID":"2022-012U","EPOCH":"2025-12-17T05:03:31.710816","MEAN_MOTION":13.10374639,"ECCENTRICITY":0.00015252,"INCLINATION":87.8809,"RA_OF_ASC_NODE":72.5676,"ARG_OF_PERICENTER":104.7821,"MEAN_ANOMALY":255.3476,"EPHEMERIS_TYPE":0,"CLASSIFICATION_TYPE":"U","NORAD_CAT_ID":51640,"ELEMENT_SET_NO":999,"REV_AT_EPOCH":18549,"BSTAR":0.0012598119,"MEAN_MOTION_DOT":4.52e-6,"MEAN_MOTION_DDOT":0},{"OBJECT_NAME":"ONEWEB-0448","OBJECT_ID":"2022-012V","EPOCH":"2025-12-17T07:00:39.671712","MEAN_MOTION":13.10374418,"ECCENTRICITY":0.00017577,"INCLINATION":87.8803,"RA_OF_ASC_NODE":72.5505,"ARG_OF_PERICENTER":103.6697,"MEAN_ANOMALY":256.4626,"EPHEMERIS_TYPE":0,"CLASSIFICATION_TYPE":"U","NORAD_CAT_ID":51641,"ELEMENT_SET_NO":999,"REV_AT_EPOCH":18547,"BSTAR":0.0017031375,"MEAN_MOTION_DOT":6.07e-6,"MEAN_MOTION_DDOT":0},{"OBJECT_NAME":"ONEWEB-0449","OBJECT_ID":"2022-012W","EPOCH":"2025-12-17T05:17:52.234080","MEAN_MOTION":13.10374252,"ECCENTRICITY":0.00020123,"INCLINATION":87.8813,"RA_OF_ASC_NODE":72.5374,"ARG_OF_PERICENTER":117.1256,"MEAN_ANOMALY":243.0077,"EPHEMERIS_TYPE":0,"CLASSIFICATION_TYPE":"U","NORAD_CAT_ID":51642,"ELEMENT_SET_NO":999,"REV_AT_EPOCH":18547,"BSTAR":0.0019743954,"MEAN_MOTION_DOT":7.02e-6,"MEAN_MOTION_DDOT":0}]
