ONEWEB-0422             
1 51626U 22012E   25351.20841583  .00000083  00000+0  18023-3 0  9991
2 51626  87.9117  42.0309 0002235  84.6213 275.5174 13.17648671189844
ONEWEB-0423             
1 51627U 22012F   25351.20166087  .00000053  00000+0  10440-3 0  9993
2 51627  87.9118  42.0422 0001922  99.6436 260.4912 13.17648222189730
ONEWEB-0425             
1 51628U 22012G   25351.30042443  .00000753  00000+0  21206-2 0  9992
2 51628  87.8812  72.5209 0001889 114.7086 245.4238 13.10372595185509
ONEWEB-0428             
1 51629U 22012H   25351.28049624  .00000136  00000+0  35270-3 0  9990
2 51629  87.8811  72.5431 0001730 102.5105 257.6216 13.10375186185463
ONEWEB-0431             
1 51630U 22012J   25351.25046214 -.00000388  00000+0 -11489-2 0  9997
2 51630  87.8815  72.5294 0001327  83.6216 276.5062 13.10370800185513
ONEWEB-0434             
1 51631U 22012K   25351.30388194  .00000673  00000+0  18911-2 0  9992
2 51631  87.8804  72.5541 0002182 120.5973 239.5370 13.10374307185504
ONEWEB-0435             
1 51632U 22012L   25351.23567822  .00000322  00000+0  88710-3 0  9998
2 51632  87.8804  72.5579 0001952  94.0476 266.0874 13.10370136185480
ONEWEB-0436             
1 51633U 22012M   25351.19322247  .00000048  00000+0  89268-4 0  9999
2 51633  87.9116  42.0221 0001828  92.1083 268.0258 13.17647997189716
ONEWEB-0438             
1 51634U 22012N   25351.29544109  .00000731  00000+0  20577-2 0  9999
2 51634  87.8807  72.5468 0001801 110.8652 249.2668 13.10372654185524
ONEWEB-0439             
1 51635U 22012P   25351.29876180  .00000681  00000+0  19136-2 0  9990
2 51635  87.8805  72.5346 0001784 103.7392 256.3934 13.10373489185500
ONEWEB-0442             
1 51636U 22012Q   25351.18561069 -.00000076  00000+0 -23007-3 0  9999
2 51636  87.9106  42.0709 0001775 119.9877 240.1431 13.17650630189700
ONEWEB-0443             
1 51637U 22012R   25351.20503395  .00000047  00000+0  88415-4 0  9992
2 51637  87.9103  42.0719 0002081 105.2800 254.8562 13.17648395189751
ONEWEB-0444             
1 51638U 22012S   25351.28880163  .00000528  00000+0  14765-2 0  9991
2 51638  87.8810  72.5353 0001754 102.9394 257.1930 13.10374143185511
ONEWEB-0445             
1 51639U 22012T   25351.23401804  .00000428  00000+0  11893-2 0  9996
2 51639  87.8822  72.5143 0001562 108.3985 251.7312 13.10370294185512
ONEWEB-0446             
1 51640U 22012U   25351.21078369  .00000452  00000+0  12598-2 0  9992
2 51640  87.8809  72.5676 0001525 104.7821 255.3476 13.10374639185493
ONEWEB-0448             
1 51641U 22012V   25351.29212583  .00000607  00000+0  17031-2 0  9998
2 51641  87.8803  72.5505 0001757 103.6697 256.4626 13.10374418185477
ONEWEB-0449             
1 51642U 22012W   25351.22074345  .00000702  00000+0  19744-2 0  9993
2 51642  87.8813  72.5374 0002012 117.1256 243.0077 13.10374252185477
